NORAD_CAT_ID,OBJECT_NAME,OBJECT_TYPE,EPOCH,MEAN_MOTION,ECCENTRICITY,INCLINATION,RA_OF_ASC_NODE,ARG_OF_PERICENTER,MEAN_ANOMALY,BSTAR,MEAN_MOTION_DOT,MEAN_MOTION_DDOT,TLE_LINE0,TLE_LINE1,TLE_LINE2,SEMIMAJOR_AXIS,PERIOD,APOGEE,PERIGEE,DECAYED
52377.0,STARLINK-3805,PAYLOAD,2022-06-19 14:00:01,15.73222578,0.0003295,53.2136,185.3405,6.1333,337.3051,-0.00031245,-0.000443,0.0,0 STARLINK-3805,1 52377U 22045AY  22170.58334491 -.00044300  00000-0 -31245-3 0  9997,2 52377  53.2136 185.3405 0003295   6.1333 337.3051 15.73222578  1305,6727.831,91.532,351.913,347.47900000000016,0.0
52377.0,STARLINK-3805,PAYLOAD,2022-06-19 20:00:01,15.73161107,0.000307,53.2141,184.1016,6.8023,313.3561,0.00033005,0.00045883,0.0,0 STARLINK-3805,1 52377U 22045AY  22170.83334491  .00045883  00000-0  33005-3 0  9996,2 52377  53.2141 184.1016 0003070   6.8023 313.3561 15.73161107 10557,6728.005999999999,91.535,351.93699999999984,347.806,0.0
52377.0,STARLINK-3805,PAYLOAD,2022-06-19 22:00:00,15.73143382,0.000304,53.214,183.6889,6.1726,66.2169,0.00069149,0.00097335,0.0,0 STARLINK-3805,1 52377U 22045AY  22170.91667824  .00097335  00000-0  69149-3 0  9991,2 52377  53.2140 183.6889 0003040   6.1726  66.2169 15.73143382  1304,6728.057,91.536,351.967,347.876,0.0
52377.0,STARLINK-3805,PAYLOAD,2022-06-20 12:00:00,15.73222066,0.0003382,53.2136,180.8046,9.8148,128.1697,-0.00014552,-0.00021021,0.0,0 STARLINK-3805,1 52377U 22045AY  22171.50001157 -.00021021  00000-0 -14552-3 0  9997,2 52377  53.2136 180.8046 0003382   9.8148 128.1697 15.73222066 10660,6727.831999999999,91.532,351.973,347.422,0.0
52377.0,STARLINK-3805,PAYLOAD,2022-06-20 14:00:01,15.73239331,0.0003331,53.2133,180.3916,9.8957,240.3221,-0.00050457,-0.00070985,0.0,0 STARLINK-3805,1 52377U 22045AY  22171.58334491 -.00070985  00000-0 -50457-3 0  9992,2 52377  53.2133 180.3916 0003331   9.8957 240.3221 15.73239331  1304,6727.783,91.531,351.889,347.407,0.0
52377.0,STARLINK-3805,PAYLOAD,2022-06-20 22:00:00,15.73151956,0.0003018,53.2135,178.7402,11.4358,327.7385,0.00027035,0.00037418,0.0,0 STARLINK-3805,1 52377U 22045AY  22171.91667824  .00037418  00000-0  27035-3 0  9996,2 52377  53.2135 178.7402 0003018  11.4358 327.7385 15.73151956  1300,6728.031999999997,91.536,351.92800000000005,347.867,0.0
52377.0,STARLINK-3805,PAYLOAD,2022-06-21 14:00:01,15.73355575,0.000325,53.215,175.442,11.3942,145.6324,-0.002842,-0.00384552,0.0,0 STARLINK-3805,1 52377U 22045AY  22172.58334491 -.00384552  00000-0 -28420-2 0  9995,2 52377  53.2150 175.4420 0003250  11.3942 145.6324 15.73355575 10838,6727.4519999999975,91.524,351.50300000000016,347.13,0.0
52377.0,STARLINK-3805,PAYLOAD,2022-06-21 22:00:00,15.73163047,0.000304,53.2139,173.7914,8.1302,237.8764,0.00065736,0.00092525,0.0,0 STARLINK-3805,1 52377U 22045AY  22172.91667824  .00092525  00000-0  65736-3 0  9997,2 52377  53.2139 173.7914 0003040   8.1302 237.8764 15.73163047  1300,6728.001,91.535,351.911,347.82,0.0
52377.0,STARLINK-3805,PAYLOAD,2022-06-22 00:00:02,15.73193643,0.0003048,53.2142,173.3791,9.1751,349.1163,0.00039614,0.00055336,0.0,0 STARLINK-3805,1 52377U 22045AY  22173.00002315  .00055336  00000-0  39614-3 0  9991,2 52377  53.2142 173.3791 0003048   9.1751 349.1163 15.73193643 10899,6727.913000000001,91.534,351.829,347.728,0.0
52377.0,STARLINK-3805,PAYLOAD,2022-06-22 14:00:01,15.73194401,0.0003271,53.2132,170.4939,6.8099,57.0482,0.00014653,0.00019991,0.0,0 STARLINK-3805,1 52377U 22045AY  22173.58334491  .00019991  00000-0  14653-3 0  9990,2 52377  53.2132 170.4939 0003271   6.8099  57.0482 15.73194401  1305,6727.911,91.534,351.977,347.575,0.0
52377.0,STARLINK-3805,PAYLOAD,2022-06-22 16:00:00,15.73212568,0.000317,53.2133,170.081,7.5265,168.558,-7.352199999999999e-05,-0.00010937,0.0,0 STARLINK-3805,1 52377U 22045AY  22173.66667824 -.00010937  00000-0 -73522-4 0  9992,2 52377  53.2133 170.0810 0003170   7.5265 168.5580 15.73212568 11001,6727.859,91.532,351.857,347.592,0.0
52377.0,STARLINK-3805,PAYLOAD,2022-06-22 22:00:00,15.73232316,0.0002996,53.2133,168.8427,10.4489,142.3497,-0.00026244,-0.00037352,0.0,0 STARLINK-3805,1 52377U 22045AY  22173.91667824 -.00037352  00000-0 -26244-3 0  9998,2 52377  53.2133 168.8427 0002996  10.4489 142.3497 15.73232316  1308,6727.803000000001,91.531,351.684,347.652,0.0
52377.0,STARLINK-3805,PAYLOAD,2022-06-23 14:00:01,15.73187009,0.0003222,53.2134,165.5452,9.8626,320.7985,-7.4002e-05,-0.00010992,0.0,0 STARLINK-3805,1 52377U 22045AY  22174.58334491 -.00010992  00000-0 -74002-4 0  9990,2 52377  53.2134 165.5452 0003222   9.8626 320.7985 15.73187009  1301,6727.932,91.534,351.965,347.629,0.0
52377.0,STARLINK-3805,PAYLOAD,2022-06-23 22:00:00,15.73174723,0.0003032,53.2137,163.8939,11.4347,48.1328,0.00047911,0.00067096,0.0,0 STARLINK-3805,1 52377U 22045AY  22174.91667824  .00067096  00000-0  47911-3 0  9999,2 52377  53.2137 163.8939 0003032  11.4347  48.1328 15.73174723 11204,6727.967,91.535,351.872,347.792,0.0
52377.0,STARLINK-3805,PAYLOAD,2022-06-24 06:00:02,15.73201684,0.0003276999999999,53.2135,162.2463,9.9481,138.6067,-0.00036216,-0.00051162,0.0,0 STARLINK-3805,1 52377U 22045AY  22175.25002315 -.00051162  00000-0 -36216-3 0  9990,2 52377  53.2135 162.2463 0003277   9.9481 138.6067 15.73201684 11256,6727.89,91.533,351.96,347.551,0.0
52377.0,STARLINK-3805,PAYLOAD,2022-06-24 14:00:01,15.73193419,0.0003216,53.2129,160.5962,8.9768,228.4159,-1.9779e-05,-3.398e-05,0.0,0 STARLINK-3805,1 52377U 22045AY  22175.58334491 -.00003398  00000-0 -19779-4 0  9993,2 52377  53.2129 160.5962 0003216   8.9768 228.4159 15.73193419 11306,6727.9140000000025,91.534,351.9430000000001,347.615,0.0
52377.0,STARLINK-3805,PAYLOAD,2022-06-24 22:00:01,15.73070092,0.0003311,53.2166,158.9423,12.7315,313.6771,0.0015185,0.00216902,0.0,0 STARLINK-3805,1 52377U 22045AY  22175.91668981  .00216902  00000-0  15185-2 0  9994,2 52377  53.2166 158.9423 0003311  12.7315 313.6771 15.73070092  1304,6728.266,91.541,352.358,347.903,0.0
52377.0,STARLINK-3805,PAYLOAD,2022-06-25 06:00:00,15.73221455,0.000316,53.2132,157.2977,8.3195,47.0188,-0.00043118,-0.00060774,0.0,0 STARLINK-3805,1 52377U 22045AY  22176.25001157 -.00060774  00000-0 -43118-3 0  9992,2 52377  53.2132 157.2977 0003160   8.3195  47.0188 15.73221455 11416,6727.834,91.532,351.825,347.5730000000001,0.0
52377.0,STARLINK-3805,PAYLOAD,2022-06-25 14:00:01,15.73218093,0.0003147,53.2133,155.6471,7.146,137.1299,4.6314e-06,2.7e-07,0.0,0 STARLINK-3805,1 52377U 22045AY  22176.58334491  .00000027  00000-0  46314-5 0  9994,2 52377  53.2133 155.6471 0003147   7.1460 137.1299 15.73218093 11468,6727.844,91.532,351.826,347.591,0.0
52377.0,STARLINK-3805,PAYLOAD,2022-06-25 22:00:00,15.73252419,0.0002964,53.2137,153.9961,10.943,222.286,1.2455e-05,1.129e-05,0.0,0 STARLINK-3805,1 52377U 22045AY  22176.91667824  .00001129  00000-0  12455-4 0  9992,2 52377  53.2137 153.9961 0002964  10.9430 222.2860 15.73252419  1304,6727.746,91.53,351.605,347.617,0.0
52377.0,STARLINK-3805,PAYLOAD,2022-06-26 14:00:01,15.73237648,0.0003115,53.2131,150.6979,8.6127,42.6344,-0.0006451,-0.00090365,0.0,0 STARLINK-3805,1 52377U 22045AY  22177.58335648 -.00090365  00000-0 -64510-3 0  9992,2 52377  53.2131 150.6979 0003115   8.6127  42.6344 15.73237648 11621,6727.788000000001,91.531,351.749,347.557,0.0
52377.0,STARLINK-3805,PAYLOAD,2022-06-26 22:00:00,15.73155099,0.0002882,53.2135,149.0473,9.596,130.5072,0.00039706,0.00055373,0.0,0 STARLINK-3805,1 52377U 22045AY  22177.91667824  .00055373  00000-0  39706-3 0  9990,2 52377  53.2135 149.0473 0002882   9.5960 130.5072 15.73155099  1309,6728.023,91.536,351.827,347.949,0.0
52377.0,STARLINK-3805,PAYLOAD,2022-06-27 06:00:00,15.73175114,0.000321,53.2136,147.4,11.444,217.5604,-0.00026054,-0.00036999,0.0,0 STARLINK-3805,1 52377U 22045AY  22178.25001157 -.00036999  00000-0 -26054-3 0  9996,2 52377  53.2136 147.4000 0003210  11.4440 217.5604 15.73175114 11723,6727.965999999999,91.535,351.991,347.671,0.0
52377.0,STARLINK-3805,PAYLOAD,2022-06-27 14:00:01,15.72923587,0.0003084,53.2166,145.747,4.2776,313.6346,0.0029064,0.00423503,0.0,0 STARLINK-3805,1 52377U 22045AY  22178.58334491  .00423503  00000-0  29064-2 0  9994,2 52377  53.2166 145.7470 0003084   4.2776 313.6346 15.72923587 11779,6728.683000000001,91.549,352.62300000000016,348.473,0.0
52377.0,STARLINK-3805,PAYLOAD,2022-06-27 22:00:00,15.73193453,0.0003006,53.2143,144.0986,15.4807,31.3685,0.00032592,0.00045361,0.0,0 STARLINK-3805,1 52377U 22045AY  22178.91667824  .00045361  00000-0  32592-3 0  9993,2 52377  53.2143 144.0986 0003006  15.4807  31.3685 15.73193453  1301,6727.9140000000025,91.534,351.801,347.756,0.0
52377.0,STARLINK-3805,PAYLOAD,2022-06-28 06:00:00,15.73186501,0.0003269,53.2143,142.4512,12.7281,123.0468,-0.00021341,-0.00030457,0.0,0 STARLINK-3805,1 52377U 22045AY  22179.25001157 -.00030457  00000-0 -21341-3 0  9994,2 52377  53.2143 142.4512 0003269  12.7281 123.0468 15.73186501 11883,6727.934,91.534,351.99800000000016,347.599,0.0
52377.0,STARLINK-3805,PAYLOAD,2022-06-28 14:00:01,15.73187082,0.0003129,53.214,140.8005,12.7911,211.8746,-0.00013208,-0.00019112,0.0,0 STARLINK-3805,1 52377U 22045AY  22179.58334491 -.00019112  00000-0 -13208-3 0  9998,2 52377  53.2140 140.8005 0003129  12.7911 211.8746 15.73187082  1300,6727.932,91.534,351.902,347.69199999999995,0.0
52377.0,STARLINK-3805,PAYLOAD,2022-06-28 22:00:00,15.73184149,0.0002992,53.2143,139.1504,17.474,296.0938,-0.00025834,-0.00036706,0.0,0 STARLINK-3805,1 52377U 22045AY  22179.91667824 -.00036706  00000-0 -25834-3 0  9990,2 52377  53.2143 139.1504 0002992  17.4740 296.0938 15.73184149  1306,6727.94,91.534,351.8180000000001,347.792,0.0
52377.0,STARLINK-3805,PAYLOAD,2022-06-29 14:00:01,15.73184139,0.0003168,53.2147,135.8522,18.6549,112.6751,-1.4041e-06,-8.2e-06,0.0,0 STARLINK-3805,1 52377U 22045AY  22180.58334491 -.00000820  00000-0 -14041-5 0  9994,2 52377  53.2147 135.8522 0003168  18.6549 112.6751 15.73184139 12092,6727.94,91.534,351.93699999999984,347.6740000000001,0.0
